[{"OBJECT_NAME":"ONEWEB-0680","OBJECT_ID":"2023-068G","EPOCH":"2026-05-12T06:59:43.550592","MEAN_MOTION":13.2182321,"ECCENTRICITY":0.0002036,"INCLINATION":87.9251,"RA_OF_ASC_NODE":251.1119,"ARG_OF_PERICENTER":117.445,"MEAN_ANOMALY":242.6891,"EPHEMERIS_TYPE":0,"CLASSIFICATION_TYPE":"U","NORAD_CAT_ID":56716,"ELEMENT_SET_NO":999,"REV_AT_EPOCH":14635,"BSTAR":0.00014947,"MEAN_MOTION_DOT":7.5e-07,"MEAN_MOTION_DDOT":0.0},{"OBJECT_NAME":"ONEWEB-0681","OBJECT_ID":"2023-068H","EPOCH":"2026-05-12T06:31:52.518432","MEAN_MOTION":13.21825002,"ECCENTRICITY":0.0002919,"INCLINATION":87.9247,"RA_OF_ASC_NODE":251.119,"ARG_OF_PERICENTER":96.7174,"MEAN_ANOMALY":263.4293,"EPHEMERIS_TYPE":0,"CLASSIFICATION_TYPE":"U","NORAD_CAT_ID":56717,"ELEMENT_SET_NO":999,"REV_AT_EPOCH":14634,"BSTAR":0.00048693,"MEAN_MOTION_DOT":2.14e-06,"MEAN_MOTION_DDOT":0.0},{"OBJECT_NAME":"ONEWEB-0682","OBJECT_ID":"2023-068J","EPOCH":"2026-05-12T06:49:56.690688","MEAN_MOTION":13.15547162,"ECCENTRICITY":0.0001934,"INCLINATION":87.898,"RA_OF_ASC_NODE":266.3487,"ARG_OF_PERICENTER":116.0307,"MEAN_ANOMALY":244.1022,"EPHEMERIS_TYPE":0,"CLASSIFICATION_TYPE":"U","NORAD_CAT_ID":56718,"ELEMENT_SET_NO":999,"REV_AT_EPOCH":14473,"BSTAR":-7.6545e-05,"MEAN_MOTION_DOT":-1.6e-07,"MEAN_MOTION_DDOT":0.0},{"OBJECT_NAME":"ONEWEB-0683","OBJECT_ID":"2023-068K","EPOCH":"2026-05-12T07:24:10.625184","MEAN_MOTION":13.15547179,"ECCENTRICITY":0.0001768,"INCLINATION":87.8984,"RA_OF_ASC_NODE":266.3422,"ARG_OF_PERICENTER":107.8848,"MEAN_ANOMALY":252.2476,"EPHEMERIS_TYPE":0,"CLASSIFICATION_TYPE":"U","NORAD_CAT_ID":56719,"ELEMENT_SET_NO":999,"REV_AT_EPOCH":14470,"BSTAR":-0.00014174,"MEAN_MOTION_DOT":-4.1e-07,"MEAN_MOTION_DDOT":0.0},{"OBJECT_NAME":"ONEWEB-0684","OBJECT_ID":"2023-068L","EPOCH":"2026-05-12T07:35:35.006496","MEAN_MOTION":13.15550026,"ECCENTRICITY":0.0001399,"INCLINATION":87.8981,"RA_OF_ASC_NODE":266.3315,"ARG_OF_PERICENTER":53.0083,"MEAN_ANOMALY":307.1176,"EPHEMERIS_TYPE":0,"CLASSIFICATION_TYPE":"U","NORAD_CAT_ID":56720,"ELEMENT_SET_NO":999,"REV_AT_EPOCH":14453,"BSTAR":-0.00019133,"MEAN_MOTION_DOT":-5.9e-07,"MEAN_MOTION_DDOT":0.0},{"OBJECT_NAME":"ONEWEB-0686","OBJECT_ID":"2023-068M","EPOCH":"2026-05-12T06:10:51.811104","MEAN_MOTION":13.16596597,"ECCENTRICITY":0.0001635,"INCLINATION":87.909,"RA_OF_ASC_NODE":235.93,"ARG_OF_PERICENTER":106.1441,"MEAN_ANOMALY":253.987,"EPHEMERIS_TYPE":0,"CLASSIFICATION_TYPE":"U","NORAD_CAT_ID":56721,"ELEMENT_SET_NO":999,"REV_AT_EPOCH":14698,"BSTAR":0.00020554000000000001,"MEAN_MOTION_DOT":9.1e-07,"MEAN_MOTION_DDOT":0.0},{"OBJECT_NAME":"ONEWEB-0694","OBJECT_ID":"2023-068N","EPOCH":"2026-05-12T06:19:56.565696","MEAN_MOTION":13.16596456,"ECCENTRICITY":0.0001957,"INCLINATION":87.9111,"RA_OF_ASC_NODE":235.8862,"ARG_OF_PERICENTER":115.5311,"MEAN_ANOMALY":244.6022,"EPHEMERIS_TYPE":0,"CLASSIFICATION_TYPE":"U","NORAD_CAT_ID":56722,"ELEMENT_SET_NO":999,"REV_AT_EPOCH":14704,"BSTAR":6.5152e-05,"MEAN_MOTION_DOT":3.8e-07,"MEAN_MOTION_DDOT":0.0},{"OBJECT_NAME":"ONEWEB-0696","OBJECT_ID":"2023-068P","EPOCH":"2026-05-11T21:26:22.392672","MEAN_MOTION":13.15549528,"ECCENTRICITY":0.0001801,"INCLINATION":87.8972,"RA_OF_ASC_NODE":266.4572,"ARG_OF_PERICENTER":84.9557,"MEAN_ANOMALY":275.1778,"EPHEMERIS_TYPE":0,"CLASSIFICATION_TYPE":"U","NORAD_CAT_ID":56723,"ELEMENT_SET_NO":999,"REV_AT_EPOCH":14459,"BSTAR":0.0003506,"MEAN_MOTION_DOT":1.45e-06,"MEAN_MOTION_DDOT":0.0},{"OBJECT_NAME":"ONEWEB-0703","OBJECT_ID":"2023-068Q","EPOCH":"2026-05-12T03:08:37.415040","MEAN_MOTION":13.15550227,"ECCENTRICITY":0.0002361,"INCLINATION":87.8973,"RA_OF_ASC_NODE":266.3908,"ARG_OF_PERICENTER":79.0688,"MEAN_ANOMALY":281.0708,"EPHEMERIS_TYPE":0,"CLASSIFICATION_TYPE":"U","NORAD_CAT_ID":56724,"ELEMENT_SET_NO":999,"REV_AT_EPOCH":14451,"BSTAR":0.00037925,"MEAN_MOTION_DOT":1.56e-06,"MEAN_MOTION_DDOT":0.0},{"OBJECT_NAME":"ONEWEB-0721","OBJECT_ID":"2023-068R","EPOCH":"2026-05-12T06:39:28.783872","MEAN_MOTION":13.22467336,"ECCENTRICITY":0.0001969,"INCLINATION":86.6742,"RA_OF_ASC_NODE":96.9774,"ARG_OF_PERICENTER":83.0648,"MEAN_ANOMALY":277.071,"EPHEMERIS_TYPE":0,"CLASSIFICATION_TYPE":"U","NORAD_CAT_ID":56725,"ELEMENT_SET_NO":999,"REV_AT_EPOCH":15319,"BSTAR":-7.3066e-05,"MEAN_MOTION_DOT":-1.6e-07,"MEAN_MOTION_DDOT":0.0},{"OBJECT_NAME":"ONEWEB-0015","OBJECT_ID":"2024-188A","EPOCH":"2026-05-12T05:18:21.355200","MEAN_MOTION":13.11420681,"ECCENTRICITY":0.0002245,"INCLINATION":87.8921,"RA_OF_ASC_NODE":28.2468,"ARG_OF_PERICENTER":91.1421,"MEAN_ANOMALY":268.9965,"EPHEMERIS_TYPE":0,"CLASSIFICATION_TYPE":"U","NORAD_CAT_ID":61594,"ELEMENT_SET_NO":999,"REV_AT_EPOCH":7974,"BSTAR":0.00058018,"MEAN_MOTION_DOT":2.18e-06,"MEAN_MOTION_DDOT":0.0},{"OBJECT_NAME":"ONEWEB-0687","OBJECT_ID":"2024-188B","EPOCH":"2026-05-12T02:02:38.924736","MEAN_MOTION":13.17649332,"ECCENTRICITY":0.0001818,"INCLINATION":87.9162,"RA_OF_ASC_NODE":13.0557,"ARG_OF_PERICENTER":98.7576,"MEAN_ANOMALY":261.3762,"EPHEMERIS_TYPE":0,"CLASSIFICATION_TYPE":"U","NORAD_CAT_ID":61595,"ELEMENT_SET_NO":999,"REV_AT_EPOCH":8114,"BSTAR":0.00011656999999999999,"MEAN_MOTION_DOT":5.8e-07,"MEAN_MOTION_DDOT":0.0},{"OBJECT_NAME":"ONEWEB-0688","OBJECT_ID":"2024-188C","EPOCH":"2026-05-12T04:33:18.362304","MEAN_MOTION":13.17649658,"ECCENTRICITY":0.0002839,"INCLINATION":87.9161,"RA_OF_ASC_NODE":13.0344,"ARG_OF_PERICENTER":99.8517,"MEAN_ANOMALY":260.2935,"EPHEMERIS_TYPE":0,"CLASSIFICATION_TYPE":"U","NORAD_CAT_ID":61596,"ELEMENT_SET_NO":999,"REV_AT_EPOCH":8115,"BSTAR":0.00016327,"MEAN_MOTION_DOT":7.6e-07,"MEAN_MOTION_DDOT":0.0},{"OBJECT_NAME":"ONEWEB-0689","OBJECT_ID":"2024-188D","EPOCH":"2026-05-12T06:07:11.724384","MEAN_MOTION":13.11413873,"ECCENTRICITY":0.0001553,"INCLINATION":87.894,"RA_OF_ASC_NODE":28.192,"ARG_OF_PERICENTER":87.4961,"MEAN_ANOMALY":272.6344,"EPHEMERIS_TYPE":0,"CLASSIFICATION_TYPE":"U","NORAD_CAT_ID":61597,"ELEMENT_SET_NO":999,"REV_AT_EPOCH":7974,"BSTAR":0.00033822999999999997,"MEAN_MOTION_DOT":1.33e-06,"MEAN_MOTION_DDOT":0.0},{"OBJECT_NAME":"ONEWEB-0690","OBJECT_ID":"2024-188E","EPOCH":"2026-05-12T06:21:51.982272","MEAN_MOTION":13.1141579,"ECCENTRICITY":0.0002241,"INCLINATION":87.8929,"RA_OF_ASC_NODE":28.2047,"ARG_OF_PERICENTER":66.3882,"MEAN_ANOMALY":293.7482,"EPHEMERIS_TYPE":0,"CLASSIFICATION_TYPE":"U","NORAD_CAT_ID":61598,"ELEMENT_SET_NO":999,"REV_AT_EPOCH":7992,"BSTAR":-0.00097043,"MEAN_MOTION_DOT":-3.31e-06,"MEAN_MOTION_DDOT":0.0},{"OBJECT_NAME":"ONEWEB-0691","OBJECT_ID":"2024-188F","EPOCH":"2026-05-12T06:14:31.515936","MEAN_MOTION":13.11416578,"ECCENTRICITY":0.0002031,"INCLINATION":87.8937,"RA_OF_ASC_NODE":28.1112,"ARG_OF_PERICENTER":90.3232,"MEAN_ANOMALY":269.8128,"EPHEMERIS_TYPE":0,"CLASSIFICATION_TYPE":"U","NORAD_CAT_ID":61599,"ELEMENT_SET_NO":999,"REV_AT_EPOCH":7977,"BSTAR":-0.00039554,"MEAN_MOTION_DOT":-1.27e-06,"MEAN_MOTION_DDOT":0.0},{"OBJECT_NAME":"ONEWEB-0692","OBJECT_ID":"2024-188G","EPOCH":"2026-05-12T03:04:04.211328","MEAN_MOTION":13.11417922,"ECCENTRICITY":0.0001136,"INCLINATION":87.8927,"RA_OF_ASC_NODE":28.2568,"ARG_OF_PERICENTER":66.0641,"MEAN_ANOMALY":294.0606,"EPHEMERIS_TYPE":0,"CLASSIFICATION_TYPE":"U","NORAD_CAT_ID":61600,"ELEMENT_SET_NO":999,"REV_AT_EPOCH":7974,"BSTAR":-0.0014642,"MEAN_MOTION_DOT":-5.06e-06,"MEAN_MOTION_DDOT":0.0},{"OBJECT_NAME":"ONEWEB-0693","OBJECT_ID":"2024-188H","EPOCH":"2026-05-12T04:50:19.149792","MEAN_MOTION":13.17649524,"ECCENTRICITY":0.0002466,"INCLINATION":87.9158,"RA_OF_ASC_NODE":13.0536,"ARG_OF_PERICENTER":69.3907,"MEAN_ANOMALY":290.7489,"EPHEMERIS_TYPE":0,"CLASSIFICATION_TYPE":"U","NORAD_CAT_ID":61601,"ELEMENT_SET_NO":999,"REV_AT_EPOCH":8114,"BSTAR":5.8563e-05,"MEAN_MOTION_DOT":3.6e-07,"MEAN_MOTION_DDOT":0.0},{"OBJECT_NAME":"ONEWEB-0695","OBJECT_ID":"2024-188J","EPOCH":"2026-05-12T06:09:37.887264","MEAN_MOTION":13.11416512,"ECCENTRICITY":0.0001256,"INCLINATION":87.8916,"RA_OF_ASC_NODE":28.2237,"ARG_OF_PERICENTER":83.3407,"MEAN_ANOMALY":276.7864,"EPHEMERIS_TYPE":0,"CLASSIFICATION_TYPE":"U","NORAD_CAT_ID":61602,"ELEMENT_SET_NO":999,"REV_AT_EPOCH":7975,"BSTAR":8.842600000000001e-05,"MEAN_MOTION_DOT":4.4e-07,"MEAN_MOTION_DDOT":0.0},{"OBJECT_NAME":"ONEWEB-0697","OBJECT_ID":"2024-188K","EPOCH":"2026-05-12T05:06:08.918208","MEAN_MOTION":13.11420673,"ECCENTRICITY":0.0001154,"INCLINATION":87.8921,"RA_OF_ASC_NODE":28.2224,"ARG_OF_PERICENTER":61.4665,"MEAN_ANOMALY":298.6579,"EPHEMERIS_TYPE":0,"CLASSIFICATION_TYPE":"U","NORAD_CAT_ID":61603,"ELEMENT_SET_NO":999,"REV_AT_EPOCH":7973,"BSTAR":-0.00048513,"MEAN_MOTION_DOT":-1.59e-06,"MEAN_MOTION_DDOT":0.0},{"OBJECT_NAME":"ONEWEB-0698","OBJECT_ID":"2024-188L","EPOCH":"2026-05-12T06:24:16.352352","MEAN_MOTION":13.11414415,"ECCENTRICITY":0.0001884,"INCLINATION":87.8915,"RA_OF_ASC_NODE":28.2264,"ARG_OF_PERICENTER":42.8694,"MEAN_ANOMALY":317.2581,"EPHEMERIS_TYPE":0,"CLASSIFICATION_TYPE":"U","NORAD_CAT_ID":61604,"ELEMENT_SET_NO":999,"REV_AT_EPOCH":7976,"BSTAR":-0.0011151,"MEAN_MOTION_DOT":-3.83e-06,"MEAN_MOTION_DDOT":0.0},{"OBJECT_NAME":"ONEWEB-0699","OBJECT_ID":"2024-188M","EPOCH":"2026-05-12T06:01:37.045344","MEAN_MOTION":13.10375338,"ECCENTRICITY":0.0001398,"INCLINATION":87.8864,"RA_OF_ASC_NODE":43.4179,"ARG_OF_PERICENTER":61.618,"MEAN_ANOMALY":298.5089,"EPHEMERIS_TYPE":0,"CLASSIFICATION_TYPE":"U","NORAD_CAT_ID":61605,"ELEMENT_SET_NO":999,"REV_AT_EPOCH":7860,"BSTAR":-0.0012157,"MEAN_MOTION_DOT":-4.12e-06,"MEAN_MOTION_DDOT":0.0},{"OBJECT_NAME":"ONEWEB-0700","OBJECT_ID":"2024-188N","EPOCH":"2026-05-12T04:14:03.140736","MEAN_MOTION":13.10375518,"ECCENTRICITY":0.000117,"INCLINATION":87.8879,"RA_OF_ASC_NODE":43.3356,"ARG_OF_PERICENTER":75.4331,"MEAN_ANOMALY":284.6926,"EPHEMERIS_TYPE":0,"CLASSIFICATION_TYPE":"U","NORAD_CAT_ID":61606,"ELEMENT_SET_NO":999,"REV_AT_EPOCH":7858,"BSTAR":-0.0009262000000000001,"MEAN_MOTION_DOT":-3.11e-06,"MEAN_MOTION_DDOT":0.0}]